     2.10           G: GLONASS NAV DATA                     RINEX VERSION / TYPE
teqc  2015Jun23                         20210703 01:25:49UTCPGM / RUN BY / DATE
Linux 2.4.21-27.ELsmp|Opteron|gcc -static|Linux x86_64|=+   COMMENT
  2021     6     9    2.933666110039D-08                    CORR TO SYSTEM TIME
                                                            END OF HEADER
19 21  6 10  0 15  0.0-1.471340656281D-04-9.094947017729D-13 0.000000000000D+00
   -1.269327880859D+04 5.624456405640D-01-3.725290298462D-09 0.000000000000D+00
    2.132912646484D+04-6.305799484253D-01-1.862645149231D-09 3.000000000000D+00
    5.882314453125D+03 3.495691299438D+00 9.313225746155D-10 0.000000000000D+00
 5 21  6 10  0 15  0.0 7.328484207392D-05 0.000000000000D+00 0.000000000000D+00
   -2.403021484375D+03-1.720982551575D+00 1.862645149231D-09 0.000000000000D+00
    1.352907080078D+04-2.391202926636D+00-9.313225746155D-10 1.000000000000D+00
   -2.147036474609D+04-1.314874649048D+00 9.313225746155D-10 0.000000000000D+00
 6 21  6 10  0 15  0.0 1.994362100959D-04 0.000000000000D+00 0.000000000000D+00
    1.243656591797D+04-5.049266815186D-01 1.862645149231D-09 0.000000000000D+00
    2.108627246094D+04-8.468980789185D-01-2.793967723846D-09-4.000000000000D+00
   -7.137415527344D+03-3.385517120361D+00-0.000000000000D+00 0.000000000000D+00
 7 21  6 10  0 15  0.0-4.236493259668D-05 0.000000000000D+00 0.000000000000D+00
    1.769048193359D+04 9.429473876953D-01 9.313225746155D-10 0.000000000000D+00
    1.538956591797D+04 1.002248764038D+00-1.862645149231D-09 5.000000000000D+00
    1.003545214844D+04-3.216252326965D+00-1.862645149231D-09 0.000000000000D+00
18 21  6 10  0 15  0.0 7.948558777571D-05 9.094947017729D-13 0.000000000000D+00
   -1.362401708984D+04 1.161680221558D+00-4.656612873077D-09 0.000000000000D+00
    9.909143554688D+03-2.357728958130D+00-0.000000000000D+00-3.000000000000D+00
    1.913914599609D+04 2.053172111511D+00 0.000000000000D+00 0.000000000000D+00
20 21  6 10  0 15  0.0-5.060061812401D-05-0.000000000000D+00 0.000000000000D+00
   -3.110218261719D+03-6.052513122559D-01 0.000000000000D+00 0.000000000000D+00
    2.125080957031D+04 1.796879768372D+00-1.862645149231D-09 2.000000000000D+00
   -1.372700634766D+04 2.922466278076D+00 9.313225746155D-10 0.000000000000D+00
16 21  6 10  0 15  0.0-1.618172973394D-05-0.000000000000D+00 2.100000000000D+02
   -1.278434521484D+04-2.552492141724D+00-4.656612873077D-09 0.000000000000D+00
    1.133552587891D+04 4.818000793457D-01-0.000000000000D+00-1.000000000000D+00
    1.897081933594D+04-1.994166374207D+00 0.000000000000D+00 0.000000000000D+00
19 21  6 10  0 45  0.0-1.471368595958D-04-9.094947017729D-13 1.800000000000D+03
   -1.152476025391D+04 6.915760040283D-01-4.656612873077D-09 0.000000000000D+00
    1.941497314453D+04-1.491181373596D+00-0.000000000000D+00 3.000000000000D+00
    1.186578808594D+04 3.109421730042D+00 9.313225746155D-10 0.000000000000D+00
 5 21  6 10  0 45  0.0 7.328577339649D-05 9.094947017729D-13 1.800000000000D+03
   -5.953881347656D+03-2.198563575745D+00 9.313225746155D-10 0.000000000000D+00
    9.304719726562D+03-2.257740020752D+00-9.313225746155D-10 1.000000000000D+00
   -2.297501855469D+04-3.461303710938D-01 1.862645149231D-09 0.000000000000D+00
 6 21  6 10  0 45  0.0 1.994371414185D-04 0.000000000000D+00 1.800000000000D+03
    1.092167333984D+04-1.189863204956D+00 1.862645149231D-09 0.000000000000D+00
    1.911197802734D+04-1.305538177490D+00-2.793967723846D-09-4.000000000000D+00
   -1.287633349609D+04-2.949638366699D+00 0.000000000000D+00 0.000000000000D+00
 7 21  6 10  0 45  0.0-4.236493259668D-05-0.000000000000D+00 1.800000000000D+03
    1.901331396484D+04 4.869880676270D-01 9.313225746155D-10 0.000000000000D+00
    1.652048144531D+04 2.678003311157D-01-1.862645149231D-09 5.000000000000D+00
    3.932745605469D+03-3.520522117615D+00-1.862645149231D-09 0.000000000000D+00
16 21  6 10  0 45  0.0-1.618266105652D-05 0.000000000000D+00 1.800000000000D+03
   -1.681690966797D+04-1.897377967834D+00-5.587935447693D-09 0.000000000000D+00
    1.240625292969D+04 6.733179092407D-01 0.000000000000D+00-1.000000000000D+00
    1.469663085938D+04-2.723974227905D+00 9.313225746155D-10 0.000000000000D+00
20 21  6 10  0 45  0.0-5.060248076916D-05-9.094947017729D-13 1.800000000000D+03
   -3.720951660156D+03-9.958934783936D-02-9.313225746155D-10 0.000000000000D+00
    2.390968359375D+04 1.120166778564D+00-1.862645149231D-09 2.000000000000D+00
   -8.002749511719D+03 3.396448135376D+00 9.313225746155D-10 0.000000000000D+00
21 21  6 10  0 45  0.0-2.153757959604D-04-2.728484105319D-12 2.760000000000D+03
    6.960244140625D+03-7.210035324097D-01 1.862645149231D-09 0.000000000000D+00
    1.142463330078D+04 2.889854431152D+00-1.862645149231D-09 4.000000000000D+00
   -2.173070214844D+04 1.286408424377D+00 0.000000000000D+00 0.000000000000D+00
19 21  6 10  1 15  0.0-1.471396535635D-04-9.094947017729D-13 3.600000000000D+03
   -1.035886572266D+04 5.634984970093D-01-4.656612873077D-09 0.000000000000D+00
    1.601523144531D+04-2.261579513550D+00 0.000000000000D+00 3.000000000000D+00
    1.693153027344D+04 2.482608795166D+00 0.000000000000D+00 0.000000000000D+00
 6 21  6 10  1 15  0.0 1.994380727410D-04 0.000000000000D+00 3.600000000000D+03
    8.144457031250D+03-1.888901710510D+00 9.313225746155D-10 0.000000000000D+00
    1.654458886719D+04-1.501938819885D+00-2.793967723846D-09-4.000000000000D+00
   -1.761893945312D+04-2.285733222961D+00 0.000000000000D+00 0.000000000000D+00
 7 21  6 10  1 15  0.0-4.236493259668D-05-0.000000000000D+00 3.600000000000D+03
    1.931843408203D+04-1.763706207275D-01 9.313225746155D-10 0.000000000000D+00
    1.643248193359D+04-3.361177444458D-01-2.793967723846D-09 5.000000000000D+00
   -2.474508789062D+03-3.552308082581D+00-9.313225746155D-10 0.000000000000D+00
16 21  6 10  1 15  0.0-1.618266105652D-05 0.000000000000D+00 3.600000000000D+03
   -1.953458447266D+04-1.108997344971D+00-4.656612873077D-09 0.000000000000D+00
    1.362051806641D+04 6.346340179443D-01 9.313225746155D-10-1.000000000000D+00
    9.291285644531D+03-3.243043899536D+00 1.862645149231D-09 0.000000000000D+00
20 21  6 10  1 15  0.0-5.060434341431D-05-9.094947017729D-13 3.600000000000D+03
   -3.586997070312D+03 2.102441787720D-01-2.793967723846D-09 0.000000000000D+00
    2.517715673828D+04 2.673540115356D-01-9.313225746155D-10 2.000000000000D+00
   -1.658118652344D+03 3.607242584229D+00 9.313225746155D-10 0.000000000000D+00
21 21  6 10  1 15  0.0-2.153804525733D-04-2.728484105319D-12 3.600000000000D+03
    6.124133789062D+03-2.185125350952D-01 9.313225746155D-10 0.000000000000D+00
    1.635933984375D+04 2.543433189392D+00-1.862645149231D-09 4.000000000000D+00
   -1.860618115234D+04 2.162742614746D+00 9.313225746155D-10 0.000000000000D+00
 9 21  6 10  1 15  0.0-2.838671207428D-06 1.818989403546D-12 3.630000000000D+03
   -5.095684570312D+03-2.631431579590D+00-4.656612873077D-09 0.000000000000D+00
    1.345146728516D+04 1.170988082886D+00 0.000000000000D+00-2.000000000000D+00
    2.106422021484D+04-1.392328262329D+00-0.000000000000D+00 0.000000000000D+00
 9 21  6 10  1 45  0.0-2.837739884853D-06 1.818989403546D-12 5.400000000000D+03
   -9.341080566406D+03-2.056063652039D+00-4.656612873077D-09 0.000000000000D+00
    1.570935156250D+04 1.299661636353D+00 9.313225746155D-10-2.000000000000D+00
    1.777574218750D+04-2.237999916077D+00 0.000000000000D+00 0.000000000000D+00
19 21  6 10  1 45  0.0-1.471424475312D-04-9.094947017729D-13 5.400000000000D+03
   -9.623719726562D+03 2.241134643555D-01-4.656612873077D-09 0.000000000000D+00
    1.139318261719D+04-2.833143234253D+00 1.862645149231D-09 3.000000000000D+00
    2.068763134766D+04 1.663717269897D+00 0.000000000000D+00 0.000000000000D+00
 6 21  6 10  1 45  0.0 1.994390040636D-04 0.000000000000D+00 5.400000000000D+03
    4.180414062500D+03-2.490358352661D+00 9.313225746155D-10 0.000000000000D+00
    1.386374853516D+04-1.435254096985D+00-1.862645149231D-09-4.000000000000D+00
   -2.099881494141D+04-1.445357322693D+00 9.313225746155D-10 0.000000000000D+00
 7 21  6 10  1 45  0.0-4.236586391926D-05-0.000000000000D+00 5.400000000000D+03
    1.830480078125D+04-9.615488052368D-01 9.313225746155D-10 0.000000000000D+00
    1.543777929688D+04-7.291393280029D-01-2.793967723846D-09 5.000000000000D+00
   -8.689742187500D+03-3.308457374573D+00-0.000000000000D+00 0.000000000000D+00
16 21  6 10  1 45  0.0-1.618172973394D-05 0.000000000000D+00 5.400000000000D+03
   -2.079576660156D+04-2.980575561523D-01-3.725290298462D-09 0.000000000000D+00
    1.454093164062D+04 3.474407196045D-01 1.862645149231D-09-1.000000000000D+00
    3.171905273438D+03-3.512368202209D+00 2.793967723846D-09 0.000000000000D+00
20 21  6 10  1 45  0.0-5.060620605946D-05-9.094947017729D-13 5.400000000000D+03
   -3.112975585938D+03 2.734594345093D-01-3.725290298462D-09 0.000000000000D+00
    2.483258691406D+04-6.510248184204D-01-0.000000000000D+00 2.000000000000D+00
    4.815077636719D+03 3.538360595703D+00 9.313225746155D-10 0.000000000000D+00
21 21  6 10  1 45  0.0-2.153851091862D-04-2.728484105319D-12 5.400000000000D+03
    6.104722656250D+03 1.699390411377D-01-0.000000000000D+00 0.000000000000D+00
    2.041730371094D+04 1.925613403320D+00-1.862645149231D-09 4.000000000000D+00
   -1.404533007812D+04 2.872009277344D+00 9.313225746155D-10 0.000000000000D+00
 9 21  6 10  2 15  0.0-2.834945917130D-06 1.818989403546D-12 7.200000000000D+03
   -1.242122119141D+04-1.354104995728D+00-4.656612873077D-09 0.000000000000D+00
    1.798028222656D+04 1.179819107056D+00 1.862645149231D-09-2.000000000000D+00
    1.311101171875D+04-2.911458969116D+00 1.862645149231D-09 0.000000000000D+00
21 21  6 10  2 15  0.0-2.153897657990D-04-2.728484105319D-12 7.200000000000D+03
    6.615854980469D+03 3.595371246338D-01-1.862645149231D-09 0.000000000000D+00
    2.317528271484D+04 1.115008354187D+00-1.862645149231D-09 4.000000000000D+00
   -8.400314453125D+03 3.359573364258D+00 9.313225746155D-10 0.000000000000D+00
